KUIPER-00133            
1 65764U 25217C   25342.54035574  .00006953  00000+0  94094-3 0  9995
2 65764  51.9031  96.1479 0011300  18.7340 341.4036 14.79869539 11243
KUIPER-00139            
1 65765U 25217D   25342.68619357  .00012050  00000+0  93849-3 0  9990
2 65765  51.8863  90.4818 0007914   7.5681 352.5408 15.01558313 11337
KUIPER-00142            
1 65766U 25217E   25343.16668980 -.00811076  00000+0 -30865-1 0  9995
2 65766  51.8713  81.9182 0002972  27.7430 275.3934 15.28794378  4268
KUIPER-00145            
1 65767U 25217F   25343.16668980 -.00879805  00000+0 -42109-1 0  9994
2 65767  51.8817  82.9499 0005507 335.2279 141.8911 15.20963226  5536
KUIPER-00147            
1 65768U 25217G   25343.16668980  .00058933  00000+0  35676-2 0  9996
2 65768  51.8811  84.4765 0010129   6.9149  49.9751 15.10008389  5403
KUIPER-00148            
1 65769U 25217H   25343.16668980  .00062953  00000+0  32027-2 0  9991
2 65769  51.8709  84.2989 0008450  28.9282 181.2254 15.16207959  3925
KUIPER-00150            
1 65770U 25217J   25343.16668980 -.00269690  00000+0 -34068-1 0  9998
2 65770  51.9255  90.8519 0006409  19.2983  79.9051 14.83096353  5353
KUIPER-00151            
1 65771U 25217K   25343.16668980 -.00896484  00000+0 -64411-1 0  9991
2 65771  51.8832  85.1537 0003002 351.2092 191.0493 15.06685173  5768
